ONEWEB-0388             
1 49314U 21090AM  24108.48706071  .00000165  00000+0  37956-3 0  9995
2 49314  87.9099 102.3498 0001851  83.4544 276.6799 13.19725958122129
ONEWEB-0389             
1 50469U 21132A   24108.70331672 -.00000011  00000+0 -61880-4 0  9997
2 50469  87.9216 163.1703 0002526  91.8944 268.2477 13.17651259113988
ONEWEB-0390             
1 50470U 21132B   24108.85674743  .00000142  00000+0  33127-3 0  9999
2 50470  87.9215 163.1479 0002467 102.2802 257.8606 13.17651316114009
ONEWEB-0391             
1 50471U 21132C   24108.85832980  .00000041  00000+0  73696-4 0  9993
2 50471  87.9224 163.1260 0002426  88.8892 271.2517 13.17651036114001
ONEWEB-0392             
1 50472U 21132D   24108.88839710 -.00000004  00000+0 -43437-4 0  9996
2 50472  87.9206 163.1293 0002423  93.7491 266.3917 13.17646752114047
